#aV2011  9  2  0  0   .00000000      96 DD+AD WGS84 FIT  NGA
## 1651 432000.00000000   900.00000000 55806  .0000000000000
+   31     2  3  4  5  6  7  8  9 10 11 12 13 14 15 16 17 18
+         19 20 21 22 23 24 25 26 27 28 29 30 31 32  0  0  0
+          0  0  0  0  0  0  0  0  0  0  0  0  0  0  0  0  0
+          0  0  0  0  0  0  0  0  0  0  0  0  0  0  0  0  0
+          0  0  0  0  0  0  0  0  0  0  0  0  0  0  0  0  0
++         0  0  0  0  0  0  0  0  0  0  0  0  0  0  0  0  0
++         0  0  0  0  0  0  0  0  0  0  0  0  0  0  0  0  0
++         0  0  0  0  0  0  0  0  0  0  0  0  0  0  0  0  0
++         0  0  0  0  0  0  0  0  0  0  0  0  0  0  0  0  0
++         0  0  0  0  0  0  0  0  0  0  0  0  0  0  0  0  0
%c cc cc ccc ccc cccc cccc cccc cccc ccccc ccccc ccccc ccccc
%c cc cc ccc ccc cccc cccc cccc cccc ccccc ccccc ccccc ccccc
%f  0.0000000  0.000000000  0.00000000000  0.000000000000000
%f  0.0000000  0.000000000  0.00000000000  0.000000000000000
%i    0    0    0    0      0      0      0      0         0
%i    0    0    0    0      0      0      0      0         0
/*      NGA, ST. LOUIS,MO.                                  
/*   EPHEMERIS COMPUTED FROM  3 DAYS OF DATA                
/* CCCCCCCCCCCCCCCCCCCCCCCCCCCCCCCCCCCCCCCCCCCCCCCCCCCCCCCCC
/* CCCCCCCCCCCCCCCCCCCCCCCCCCCCCCCCCCCCCCCCCCCCCCCCCCCCCCCCC
*  2011  9  2  0 30   .00000000                                                 
P  2    162.842433 -16122.071523  21228.095900    353.983719                    
V  2  25846.000167   7164.965683   4768.434683       .018725                    
P  3  -6840.930278  22589.661916 -12314.254783    762.714435                    
V  3 -12164.284078   9580.220613  25547.133559       .050391                    
P  4  17066.575493  -8756.056935  18289.951553    218.929985                    
V  4  22077.866049   8589.023495 -15953.887230       .111339                    
P  5   -956.939931 -25604.406205   6760.412111   -212.358869                    
V  5   4870.497092   7740.054307  30066.347336      -.053495                    
P  6 -12333.552791  21733.493590  -8485.030492    -81.150514                    
V  6 -10230.450151   5517.119692  28774.166582       .094374                    
P  7  25823.552384   5479.280904  -3920.681751     24.764064                    
V  7   4062.543832   3533.425260  31405.130782       .017730                    
P  8  23580.935175    741.265170 -12723.471381      9.043697                    
V  8  14396.856554   6921.598573  26453.764094       .000835                    
P  9 -17336.129485 -14816.826641 -14146.386032    102.953655                    
V  9  16732.713855   3327.163223 -24995.806542       .023364                    
P 10  11119.273582 -14206.393194  19145.995768    -11.800271                    
V 10   6686.257909  24095.085150  14212.769795      -.012090                    
P 11  16213.805562  13920.284341 -16311.442591   -182.179014                    
V 11 -20334.463745   2021.794381 -18536.659841      -.033141                    
P 12 -11930.497981 -21204.492608  10866.103151     19.677344                    
V 12   -937.934193 -13801.672810 -27817.050486       .024115                    
P 13  18485.690529   1357.974939  18919.478217    253.540611                    
V 13 -18473.057045  15687.404058  16721.618067      -.018623                    
P 14 -21644.232431  14821.082752  -3434.411947    170.116562                    
V 14   2098.392124  -4663.189003 -31917.740617       .019095                    
P 15  -5087.786294 -15744.380181 -20734.087344   -108.080333                    
V 15  19697.625741 -17646.102428   8732.410876       .016262                    
P 16   1161.472684  25810.571524   5444.394419   -195.299303                    
V 16  -3729.026844  -6359.398504  31301.576589      -.022413                    
P 17  21109.888359 -15593.107222  -3001.242765    176.870731                    
V 17  -1072.079098   4878.880693 -31625.872902      -.016577                    
P 18 -16254.010396  -3278.348664 -20474.585033    155.241527                    
V 18  -4807.725532 -26386.570274   7543.012396       .018648                    
P 19   1103.126302  17108.439588 -20210.682279   -179.348882                    
V 19 -21038.575775  14848.264394  11790.063740      -.040434                    
P 20  14074.047787  19315.100278  11512.735899     52.420501                    
V 20    861.469649  15176.110103 -26124.491395       .004553                    
P 21 -25807.299059  -3276.405276  -6311.568506   -168.654903                    
V 21  -7122.205082  -5550.897730  29345.370608      -.025439                    
P 22 -12563.226959  12140.787474 -19796.402217    144.880120                    
V 22  -6659.065379 -24844.888425 -11022.503801      -.000842                    
P 23  12429.320955   9086.677707  21687.890957    279.355728                    
V 23 -20261.349859  18528.954472   3495.443883      -.030451                    
P 24  19003.811723  15296.690913 -10823.414655    420.391375                    
V 24 -13763.797624  -2357.951043 -27074.985664       .032086                    
P 25 -15762.837429 -10661.211732  18510.974553     16.766158                    
V 25  -4140.260475 -23219.477612 -16846.562651       .017546                    
P 26   7237.079857 -19713.068713 -16611.470284   -143.222002                    
V 26  16640.196929 -11338.451909  21861.353861      -.125379                    
P 27 -13039.621731 -15166.872394 -17014.596905    300.955602                    
V 27  22284.892775   4462.276290 -19943.200741       .037853                    
P 28  13120.380925  -7893.695227 -21145.450016     64.190869                    
V 28   5705.919625  27512.707878  -6813.696585       .030642                    
P 29 -18781.362509  -1166.142731  18795.126617    236.233376                    
V 29  17116.334304 -16505.439158  16179.680860       .032223                    
P 30 -16611.572613  -6847.490241  19203.489376     90.299583                    
V 30  -6706.576062 -24317.423284 -14193.585202      -.040569                    
P 31 -13771.349349  10075.690356  20610.799349    135.238495                    
V 31 -24168.521035  -8491.507463 -11907.719880       .055999                    
P 32   7699.112380  25026.492094   5934.306437   -321.326208                    
V 32  -1539.848772   7390.051628 -30130.875901      -.067755                    
EOF
